STARLINK-35392          
1 65823U 25221A   26203.16582187  .00018924  00000+0  56951-3 0  9999
2 65823  53.1587 183.6246 0001713 130.6682 229.4470 15.34416726 46673
STARLINK-35281          
1 65824U 25221B   26203.15320274  .00029226  00000+0  87219-3 0  9994
2 65824  53.1595 183.5475 0001345 122.8831 237.2301 15.34420574 46672
STARLINK-35397          
1 65825U 25221C   26203.17157716  .00008410  00000+0  25976-3 0  9990
2 65825  53.1582 181.5338 0001266 104.3261 255.7882 15.34399330 46707
STARLINK-35381          
1 65826U 25221D   26203.18420157  .00027735  00000+0  82880-3 0  9992
2 65826  53.1575 181.6124 0001048 102.8759 257.2361 15.34406172 46709
STARLINK-35393          
1 65827U 25221E   26203.16105389  .00025380  00000+0  75949-3 0  9990
2 65827  53.1565 181.4639 0001225 122.7823 237.3298 15.34411052 46709
STARLINK-35396          
1 65828U 25221F   26203.19261666  .00032221  00000+0  96021-3 0  9991
2 65828  53.1587 181.6632 0001167  97.9711 262.1424 15.34415090 46706
STARLINK-35244          
1 65829U 25221G   26203.17380041  .00020658  00000+0  67508-3 0  9998
2 65829  53.1566 185.8428 0001180 115.0321 245.0803 15.31725687 46600
STARLINK-35368          
1 65830U 25221H   26203.18266070  .00020572  00000+0  61830-3 0  9993
2 65830  53.1579 183.7285 0001568  85.8639 274.2543 15.34400749 46630
STARLINK-35337          
1 65831U 25221J   26203.15684837  .00028248  00000+0  84374-3 0  9992
2 65831  53.1566 181.4390 0001201 105.6637 254.4498 15.34411166 46704
STARLINK-35277          
1 65832U 25221K   26203.14010686  .00023891  00000+0  71581-3 0  9992
2 65832  53.1593 182.0435 0000728  85.5749 274.5336 15.34406843 46693
STARLINK-35345          
1 65833U 25221L   26203.13800050  .00021932  00000+0  65808-3 0  9993
2 65833  53.1588 182.0255 0001996 127.5121 232.6063 15.34412603 46690
STARLINK-35320          
1 65834U 25221M   26203.25002315  .00004078  00000+0  13187-3 0  9990
2 65834  53.1592 183.4592 0002000  86.3323 262.8448 15.34379168  5817
STARLINK-35349          
1 65835U 25221N   26203.28978711  .00038881  00000+0  11557-2 0  9993
2 65835  53.1592 182.9782 0001231  40.8725 319.2370 15.34405388 45346
STARLINK-35356          
1 65836U 25221P   26203.21415049  .00090025  00000+0  26505-2 0  9994
2 65836  53.1604 183.2097 0001535  73.0277 287.0894 15.34320232 45337
STARLINK-35314          
1 65837U 25221Q   26203.18841129  .00028437  00000+0  84932-3 0  9990
2 65837  53.1578 181.6374 0001520  48.1284 311.9848 15.34409641 45353
STARLINK-35324          
1 65838U 25221R   26203.14689036  .00034885  00000+0  10385-2 0  9998
2 65838  53.1585 183.5030 0001128 104.5464 255.5664 15.34409490 45321
STARLINK-35102          
1 65839U 25221S   26203.13589873  .00031044  00000+0  92584-3 0  9992
2 65839  53.1588 182.0168 0001220  93.9290 266.1852 15.34409610 45345
STARLINK-35364          
1 65840U 25221T   26203.15895307  .00020942  00000+0  62890-3 0  9990
2 65840  53.1566 181.4501 0000765  58.4367 301.6710 15.34415382 45353
STARLINK-35298          
1 65842U 25221V   26203.17999129  .00010537  00000+0  32250-3 0  9997
2 65842  53.1579 181.5821 0002567  21.4394 338.6716 15.34403766 45356
STARLINK-35301          
1 65843U 25221W   26203.16946996  .00031926  00000+0  95159-3 0  9993
2 65843  53.1574 181.5140 0001001 105.0178 255.0936 15.34414509 45350
STARLINK-35148          
1 65844U 25221X   26203.16736690  .00017401  00000+0  52473-3 0  9996
2 65844  53.1563 181.5040 0001486 133.1139 226.9988 15.34413129 45355
STARLINK-35302          
1 65845U 25221Y   26203.16316239  .00028200  00000+0  84267-3 0  9995
2 65845  53.1563 181.4760 0001135  77.1335 282.9794 15.34398079 45353
STARLINK-35290          
1 65846U 25221Z   26203.13168826  .00014038  00000+0  42572-3 0  9997
2 65846  53.1580 181.9869 0001115  96.9708 263.1421 15.34407283 45344
STARLINK-35262          
1 65847U 25221AA  26203.17424320  .00023355  00000+0  69990-3 0  9991
2 65847  53.1593 183.6724 0001350 111.9884 248.1262 15.34414321 46676
STARLINK-35308          
1 65848U 25221AB  26203.17788895  .00029159  00000+0  87054-3 0  9991
2 65848  53.1567 181.5669 0001060  96.2122 263.9001 15.34408938 46708
STARLINK-35231          
1 65849U 25221AC  26203.09016956  .00028098  00000+0  83894-3 0  9994
2 65849  53.1587 183.8582 0001554 116.5130 243.6032 15.34425557 46663
STARLINK-35252          
1 65850U 25221AD  26203.18897027  .00030559  00000+0  91158-3 0  9999
2 65850  53.1591 183.7644 0001545  88.3724 271.7456 15.34410876 46674
SHIYAN-30 01            
1 65851U 25222A   26203.22813395  .00001542  00000+0  15239-3 0  9998
2 65851  34.9892  51.9990 0001235  19.7611 340.3142 14.91859203 44277
SHIYAN-30 02            
1 65852U 25222B   26203.22734230  .00001550  00000+0  15323-3 0  9992
2 65852  34.9979  52.1726 0001642  50.4050 309.6800 14.91868065 44258
STARLINK-35208          
1 65854U 25223A   26202.90463674  .00025909  00000+0  77517-3 0  9997
2 65854  53.1601  28.7036 0000754 109.2351 250.8733 15.34405550 44782
