OBJECT_NAME,OBJECT_ID,EPOCH,MEAN_MOTION,ECCENTRICITY,INCLINATION,RA_OF_ASC_NODE,ARG_OF_PERICENTER,MEAN_ANOMALY,EPHEMERIS_TYPE,CLASSIFICATION_TYPE,NORAD_CAT_ID,ELEMENT_SET_NO,REV_AT_EPOCH,BSTAR,MEAN_MOTION_DOT,MEAN_MOTION_DDOT
STARLINK-35392,2025-221A,2026-07-22T03:58:47.009568,15.34416726,.00017137,53.1587,183.6246,130.6682,229.4470,0,U,65823,999,4667,.56951261E-3,.18924E-3,0
STARLINK-35281,2025-221B,2026-07-22T03:40:36.716736,15.34420574,.00013456,53.1595,183.5475,122.8831,237.2301,0,U,65824,999,4667,.87219242E-3,.29226E-3,0
STARLINK-35397,2025-221C,2026-07-22T04:07:04.266624,15.34399330,.00012668,53.1582,181.5338,104.3261,255.7882,0,U,65825,999,4670,.25975664E-3,.841E-4,0
STARLINK-35381,2025-221D,2026-07-22T04:25:15.015648,15.34406172,.0001048,53.1575,181.6124,102.8759,257.2361,0,U,65826,999,4670,.82879791E-3,.27735E-3,0
STARLINK-35393,2025-221E,2026-07-22T03:51:55.056096,15.34411052,.00012256,53.1565,181.4639,122.7823,237.3298,0,U,65827,999,4670,.75948577E-3,.2538E-3,0
STARLINK-35396,2025-221F,2026-07-22T04:37:22.079424,15.34415090,.00011672,53.1587,181.6632,97.9711,262.1424,0,U,65828,999,4670,.96020789E-3,.32221E-3,0
STARLINK-35244,2025-221G,2026-07-22T04:10:16.355424,15.31725687,.00011802,53.1566,185.8428,115.0321,245.0803,0,U,65829,999,4660,.67507967E-3,.20658E-3,0
STARLINK-35368,2025-221H,2026-07-22T04:23:01.884480,15.34400749,.00015682,53.1579,183.7285,85.8639,274.2543,0,U,65830,999,4663,.61830331E-3,.20572E-3,0
STARLINK-35337,2025-221J,2026-07-22T03:45:51.699168,15.34411166,.00012013,53.1566,181.4390,105.6637,254.4498,0,U,65831,999,4670,.84373871E-3,.28248E-3,0
STARLINK-35277,2025-221K,2026-07-22T03:21:45.232704,15.34406843,.00007281,53.1593,182.0435,85.5749,274.5336,0,U,65832,999,4669,.71581383E-3,.23891E-3,0
STARLINK-35345,2025-221L,2026-07-22T03:18:43.243200,15.34412603,.00019964,53.1588,182.0255,127.5121,232.6063,0,U,65833,999,4669,.65807722E-3,.21932E-3,0
STARLINK-35320,2025-221M,2026-07-22T06:00:02.000160,15.34379168,.00020003,53.1592,183.4592,86.3323,262.8448,0,U,65834,999,581,.13187202E-3,.4078E-4,0
STARLINK-35349,2025-221N,2026-07-22T06:57:17.606304,15.34405388,.00012313,53.1592,182.9782,40.8725,319.2370,0,U,65835,999,4534,.11557284E-2,.38881E-3,0
STARLINK-35356,2025-221P,2026-07-22T05:08:22.602336,15.34320232,.00015355,53.1604,183.2097,73.0277,287.0894,0,U,65836,999,4533,.26504595E-2,.90025E-3,0
STARLINK-35314,2025-221Q,2026-07-22T04:31:18.735456,15.34409641,.00015201,53.1578,181.6374,48.1284,311.9848,0,U,65837,999,4535,.84932012E-3,.28437E-3,0
STARLINK-35324,2025-221R,2026-07-22T03:31:31.327104,15.34409490,.00011289,53.1585,183.5030,104.5464,255.5664,0,U,65838,999,4532,.1038509E-2,.34885E-3,0
STARLINK-35102,2025-221S,2026-07-22T03:15:41.650272,15.34409610,.00012208,53.1588,182.0168,93.9290,266.1852,0,U,65839,999,4534,.92584071E-3,.31044E-3,0
STARLINK-35364,2025-221T,2026-07-22T03:48:53.545248,15.34415382,.0000765,53.1566,181.4501,58.4367,301.6710,0,U,65840,999,4535,.62890094E-3,.20942E-3,0
STARLINK-35298,2025-221V,2026-07-22T04:19:11.247456,15.34403766,.00025674,53.1579,181.5821,21.4394,338.6716,0,U,65842,999,4535,.32250497E-3,.10537E-3,0
STARLINK-35301,2025-221W,2026-07-22T04:04:02.204544,15.34414509,.00010013,53.1574,181.5140,105.0178,255.0936,0,U,65843,999,4535,.95158931E-3,.31926E-3,0
STARLINK-35148,2025-221X,2026-07-22T04:01:00.500160,15.34413129,.00014866,53.1563,181.5040,133.1139,226.9988,0,U,65844,999,4535,.52472569E-3,.17401E-3,0
STARLINK-35302,2025-221Y,2026-07-22T03:54:57.230496,15.34398079,.0001135,53.1563,181.4760,77.1335,282.9794,0,U,65845,999,4535,.84267433E-3,.282E-3,0
STARLINK-35290,2025-221Z,2026-07-22T03:09:37.865664,15.34407283,.00011155,53.1580,181.9869,96.9708,263.1421,0,U,65846,999,4534,.42571558E-3,.14038E-3,0
STARLINK-35262,2025-221AA,2026-07-22T04:10:54.612480,15.34414321,.00013502,53.1593,183.6724,111.9884,248.1262,0,U,65847,999,4667,.69989666E-3,.23355E-3,0
STARLINK-35308,2025-221AB,2026-07-22T04:16:09.605280,15.34408938,.00010608,53.1567,181.5669,96.2122,263.9001,0,U,65848,999,4670,.87054179E-3,.29159E-3,0
STARLINK-35231,2025-221AC,2026-07-22T02:09:50.649984,15.34425557,.00015549,53.1587,183.8582,116.5130,243.6032,0,U,65849,999,4666,.83894228E-3,.28098E-3,0
STARLINK-35252,2025-221AD,2026-07-22T04:32:07.031328,15.34410876,.00015459,53.1591,183.7644,88.3724,271.7456,0,U,65850,999,4667,.9115848E-3,.30559E-3,0
SHIYAN-30 01,2025-222A,2026-07-22T05:28:30.773280,14.91859203,.0001235,34.9892,51.9990,19.7611,340.3142,0,U,65851,999,4427,.15238941E-3,.1542E-4,0
SHIYAN-30 02,2025-222B,2026-07-22T05:27:22.374720,14.91868065,.00016426,34.9979,52.1726,50.4050,309.6800,0,U,65852,999,4425,.15323104E-3,.155E-4,0
STARLINK-35208,2025-223A,2026-07-21T21:42:40.614336,15.34405550,.00007541,53.1601,28.7036,109.2351,250.8733,0,U,65854,999,4478,.77517372E-3,.25909E-3,0
